{
  "links" : {
    "next" : "https://api.nasa.gov/neo/rest/v1/feed?start_date=2008-08-09&end_date=2008-08-09&detailed=true&api_key=t0TVs3DtDT2H8Oy2Zy8m2eVrNsAVKAexjcZXUckd",
    "prev" : "https://api.nasa.gov/neo/rest/v1/feed?start_date=2008-08-07&end_date=2008-08-07&detailed=true&api_key=t0TVs3DtDT2H8Oy2Zy8m2eVrNsAVKAexjcZXUckd",
    "self" : "https://api.nasa.gov/neo/rest/v1/feed?start_date=2008-08-08&end_date=2008-08-08&detailed=true&api_key=t0TVs3DtDT2H8Oy2Zy8m2eVrNsAVKAexjcZXUckd"
  },
  "element_count" : 9,
  "near_earth_objects" : {
    "2008-08-08" : [ {
      "links" : {
        "self" : "https://api.nasa.gov/neo/rest/v1/neo/3721991?api_key=t0TVs3DtDT2H8Oy2Zy8m2eVrNsAVKAexjcZXUckd"
      },
      "neo_reference_id" : "3721991",
      "name" : "(2015 MT59)",
      "nasa_jpl_url" : "http://ssd.jpl.nasa.gov/sbdb.cgi?sstr=3721991",
      "absolute_magnitude_h" : 19.3,
      "estimated_diameter" : {
        "kilometers" : {
          "estimated_diameter_min" : 0.3669061375,
          "estimated_diameter_max" : 0.8204270649
        },
        "meters" : {
          "estimated_diameter_min" : 366.9061375314,
          "estimated_diameter_max" : 820.4270648822
        },
        "miles" : {
          "estimated_diameter_min" : 0.2279848336,
          "estimated_diameter_max" : 0.5097895857
        },
        "feet" : {
          "estimated_diameter_min" : 1203.7603322587,
          "estimated_diameter_max" : 2691.6899315481
        }
      },
      "is_potentially_hazardous_asteroid" : false,
      "close_approach_data" : [ {
        "close_approach_date" : "2008-08-08",
        "epoch_date_close_approach" : 1218178800000,
        "relative_velocity" : {
          "kilometers_per_second" : "15.1445590348",
          "kilometers_per_hour" : "54520.4125254488",
          "miles_per_hour" : "33876.864105049"
        },
        "miss_distance" : {
          "astronomical" : "0.1866093296",
          "lunar" : "72.5910263062",
          "kilometers" : "27916358",
          "miles" : "17346420"
        },
        "orbiting_body" : "Earth"
      } ],
      "orbital_data" : {
        "orbit_id" : "14",
        "orbit_determination_date" : "2017-08-10 06:19:11",
        "orbit_uncertainty" : "4",
        "minimum_orbit_intersection" : ".142426",
        "jupiter_tisserand_invariant" : "3.862",
        "epoch_osculation" : "2458000.5",
        "eccentricity" : ".6271351792262272",
        "semi_major_axis" : "1.752017090134415",
        "inclination" : "9.442336561804572",
        "ascending_node_longitude" : "52.16867639043816",
        "orbital_period" : "847.0439291449493",
        "perihelion_distance" : ".6532655383055554",
        "perihelion_argument" : "341.7716965677623",
        "aphelion_distance" : "2.850768641963274",
        "perihelion_time" : "2458124.775045254914",
        "mean_anomaly" : "307.1821770366373",
        "mean_motion" : ".4250074731819434",
        "equinox" : "J2000"
      }
    }, {
      "links" : {
        "self" : "https://api.nasa.gov/neo/rest/v1/neo/3726446?api_key=t0TVs3DtDT2H8Oy2Zy8m2eVrNsAVKAexjcZXUckd"
      },
      "neo_reference_id" : "3726446",
      "name" : "(2015 QH3)",
      "nasa_jpl_url" : "http://ssd.jpl.nasa.gov/sbdb.cgi?sstr=3726446",
      "absolute_magnitude_h" : 27.0,
      "estimated_diameter" : {
        "kilometers" : {
          "estimated_diameter_min" : 0.0105816886,
          "estimated_diameter_max" : 0.023661375
        },
        "meters" : {
          "estimated_diameter_min" : 10.5816885933,
          "estimated_diameter_max" : 23.6613750114
        },
        "miles" : {
          "estimated_diameter_min" : 0.0065751544,
          "estimated_diameter_max" : 0.0147024923
        },
        "feet" : {
          "estimated_diameter_min" : 34.7168272045,
          "estimated_diameter_max" : 77.6291855923
        }
      },
      "is_potentially_hazardous_asteroid" : false,
      "close_approach_data" : [ {
        "close_approach_date" : "2008-08-08",
        "epoch_date_close_approach" : 1218178800000,
        "relative_velocity" : {
          "kilometers_per_second" : "8.811197602",
          "kilometers_per_hour" : "31720.3113671016",
          "miles_per_hour" : "19709.7679158527"
        },
        "miss_distance" : {
          "astronomical" : "0.1252946075",
          "lunar" : "48.73960495",
          "kilometers" : "18743808",
          "miles" : "11646862"
        },
        "orbiting_body" : "Earth"
      } ],
      "orbital_data" : {
        "orbit_id" : "10",
        "orbit_determination_date" : "2017-04-06 08:32:21",
        "orbit_uncertainty" : "6",
        "minimum_orbit_intersection" : ".0110021",
        "jupiter_tisserand_invariant" : "5.099",
        "epoch_osculation" : "2458000.5",
        "eccentricity" : ".1935350653426434",
        "semi_major_axis" : "1.251667501118254",
        "inclination" : "11.87538146438773",
        "ascending_node_longitude" : "327.7604013589705",
        "orbital_period" : "511.4838094803323",
        "perihelion_distance" : "1.009425949502069",
        "perihelion_argument" : "23.37959695759399",
        "aphelion_distance" : "1.493909052734438",
        "perihelion_time" : "2457789.438851975472",
        "mean_anomaly" : "148.5521376835525",
        "mean_motion" : ".7038345952059756",
        "equinox" : "J2000"
      }
    }, {
      "links" : {
        "self" : "https://api.nasa.gov/neo/rest/v1/neo/3581669?api_key=t0TVs3DtDT2H8Oy2Zy8m2eVrNsAVKAexjcZXUckd"
      },
      "neo_reference_id" : "3581669",
      "name" : "(2011 TX8)",
      "nasa_jpl_url" : "http://ssd.jpl.nasa.gov/sbdb.cgi?sstr=3581669",
      "absolute_magnitude_h" : 21.9,
      "estimated_diameter" : {
        "kilometers" : {
          "estimated_diameter_min" : 0.1108038821,
          "estimated_diameter_max" : 0.2477650126
        },
        "meters" : {
          "estimated_diameter_min" : 110.8038821264,
          "estimated_diameter_max" : 247.7650126055
        },
        "miles" : {
          "estimated_diameter_min" : 0.068850319,
          "estimated_diameter_max" : 0.1539539936
        },
        "feet" : {
          "estimated_diameter_min" : 363.5298086356,
          "estimated_diameter_max" : 812.8773639568
        }
      },
      "is_potentially_hazardous_asteroid" : true,
      "close_approach_data" : [ {
        "close_approach_date" : "2008-08-08",
        "epoch_date_close_approach" : 1218178800000,
        "relative_velocity" : {
          "kilometers_per_second" : "33.64869915",
          "kilometers_per_hour" : "121135.3169399381",
          "miles_per_hour" : "75268.7751285965"
        },
        "miss_distance" : {
          "astronomical" : "0.3794413714",
          "lunar" : "147.6026916504",
          "kilometers" : "56763624",
          "miles" : "35271280"
        },
        "orbiting_body" : "Earth"
      } ],
      "orbital_data" : {
        "orbit_id" : "10",
        "orbit_determination_date" : "2017-08-31 06:17:07",
        "orbit_uncertainty" : "2",
        "minimum_orbit_intersection" : ".0127502",
        "jupiter_tisserand_invariant" : "6.307",
        "epoch_osculation" : "2458000.5",
        "eccentricity" : ".7084087807110201",
        "semi_major_axis" : ".9096019281258874",
        "inclination" : "5.972529528842588",
        "ascending_node_longitude" : "207.9357216803708",
        "orbital_period" : "316.8658860139521",
        "perihelion_distance" : ".2652319352898346",
        "perihelion_argument" : "313.2585948566511",
        "aphelion_distance" : "1.55397192096194",
        "perihelion_time" : "2458130.233737781752",
        "mean_anomaly" : "212.6059520355744",
        "mean_motion" : "1.136127351948984",
        "equinox" : "J2000"
      }
    } ]
  }
}